QIANFAN-57              
1 62787U 25016C   25299.20173461  .00000066  00000+0  83049-4 0  9994
2 62787  88.9748 108.1058 0000974  78.5964 281.5296 13.50976493 40787
QIANFAN-58              
1 62788U 25016D   25299.24697333  .00000073  00000+0  93880-4 0  9990
2 62788  88.9718 107.9474 0015398 117.5960 242.6757 13.50976150 40836
QIANFAN-59              
1 62789U 25016E   25299.27165068  .00000065  00000+0  81604-4 0  9991
2 62789  88.9741 108.0072 0015735 121.0230 239.2469 13.50975505 40839
QIANFAN-60              
1 62790U 25016F   25299.23064366  .00000050  00000+0  58462-4 0  9998
2 62790  88.9722 107.9920 0017311 118.2036 242.0866 13.50972190 40812
QIANFAN-61              
1 62791U 25016G   25299.26339608  .00000063  00000+0  77992-4 0  9999
2 62791  88.9790 108.1192 0016264 117.4013 242.8795 13.50975821 40839
QIANFAN-62              
1 62792U 25016H   25299.26768538  .00000077  00000+0  99861-4 0  9992
2 62792  88.9736 108.0128 0017653 118.0075 242.2865 13.50979254 40821
QIANFAN-63              
1 62793U 25016J   25299.29225464  .00000049  00000+0  57516-4 0  9992
2 62793  88.9743 107.9586 0017618 122.7876 237.4975 13.50972674 40869
QIANFAN-64              
1 62794U 25016K   25299.25931218  .00000061  00000+0  75616-4 0  9995
2 62794  88.9729 107.9425 0015646 116.0755 244.2009 13.50974393 40850
